{"type":"Feature","properties":{"name":"Kanton St. Gallen","quelle":"github.com/codeforgermany/click_that_hood (switzerland.geojson), vereinfachte Grenze"},"geometry":{"type":"MultiPolygon","coordinates":[[[[9.25,46.917],[9.253,46.928],[9.252,46.936],[9.24,46.941],[9.238,46.946],[9.238,46.956],[9.248,46.96],[9.244,46.966],[9.248,46.98],[9.244,46.983],[9.248,46.988],[9.247,46.993],[9.251,46.999],[9.243,47.01],[9.243,47.017],[9.238,47.025],[9.231,47.027],[9.221,47.034],[9.208,47.037],[9.203,47.036],[9.181,47.027],[9.175,47.03],[9.169,47.028],[9.158,47.031],[9.139,47.04],[9.155,47.048],[9.169,47.051],[9.185,47.061],[9.193,47.074],[9.19,47.086],[9.191,47.092],[9.187,47.098],[9.191,47.111],[9.191,47.125],[9.149,47.13],[9.137,47.133],[9.117,47.134],[9.11,47.132],[9.103,47.134],[9.096,47.133],[9.07,47.131],[9.059,47.138],[9.009,47.174],[9.006,47.175],[8.993,47.182],[8.982,47.185],[8.972,47.18],[8.963,47.181],[8.958,47.201],[8.967,47.199],[8.97,47.212],[8.975,47.214],[8.969,47.219],[8.956,47.217],[8.943,47.219],[8.848,47.21],[8.839,47.21],[8.823,47.213],[8.809,47.222],[8.797,47.24],[8.803,47.248],[8.828,47.253],[8.839,47.248],[8.846,47.248],[8.852,47.252],[8.856,47.246],[8.868,47.245],[8.875,47.249],[8.875,47.253],[8.894,47.255],[8.909,47.258],[8.91,47.256],[8.937,47.262],[8.946,47.271],[8.942,47.273],[8.949,47.276],[8.949,47.282],[8.943,47.284],[8.937,47.29],[8.949,47.293],[8.958,47.306],[8.976,47.308],[8.986,47.321],[8.978,47.328],[8.98,47.339],[8.974,47.341],[8.973,47.352],[8.967,47.356],[8.961,47.355],[8.953,47.369],[8.953,47.373],[8.944,47.377],[8.955,47.382],[8.958,47.388],[8.966,47.386],[8.973,47.393],[8.977,47.401],[8.973,47.405],[8.978,47.412],[8.99,47.412],[8.994,47.424],[8.99,47.431],[9.001,47.433],[8.999,47.436],[9.011,47.437],[9.013,47.435],[9.024,47.442],[9.028,47.438],[9.039,47.443],[9.044,47.441],[9.048,47.446],[9.06,47.444],[9.064,47.448],[9.056,47.45],[9.052,47.454],[9.028,47.459],[9.03,47.468],[9.009,47.474],[9.01,47.481],[9.005,47.482],[9.012,47.487],[9.013,47.491],[9.029,47.49],[9.043,47.497],[9.052,47.494],[9.057,47.489],[9.064,47.494],[9.066,47.492],[9.083,47.497],[9.086,47.49],[9.091,47.484],[9.1,47.487],[9.112,47.485],[9.117,47.481],[9.124,47.482],[9.126,47.486],[9.138,47.487],[9.143,47.486],[9.157,47.489],[9.164,47.498],[9.161,47.501],[9.167,47.505],[9.174,47.496],[9.182,47.499],[9.184,47.493],[9.19,47.495],[9.209,47.49],[9.21,47.482],[9.219,47.485],[9.233,47.485],[9.233,47.482],[9.246,47.482],[9.248,47.477],[9.264,47.476],[9.28,47.481],[9.282,47.484],[9.299,47.478],[9.31,47.483],[9.32,47.492],[9.321,47.498],[9.319,47.502],[9.31,47.499],[9.313,47.512],[9.305,47.517],[9.293,47.508],[9.282,47.507],[9.272,47.509],[9.27,47.513],[9.281,47.515],[9.286,47.52],[9.283,47.522],[9.302,47.525],[9.304,47.528],[9.314,47.524],[9.315,47.53],[9.319,47.533],[9.33,47.53],[9.34,47.53],[9.34,47.526],[9.346,47.521],[9.357,47.521],[9.351,47.517],[9.345,47.508],[9.34,47.508],[9.337,47.503],[9.342,47.505],[9.357,47.502],[9.357,47.505],[9.375,47.502],[9.375,47.497],[9.37,47.495],[9.374,47.492],[9.368,47.487],[9.38,47.487],[9.39,47.483],[9.398,47.476],[9.408,47.496],[9.415,47.499],[9.423,47.497],[9.426,47.502],[9.439,47.509],[9.503,47.549],[9.516,47.538],[9.533,47.537],[9.552,47.538],[9.562,47.506],[9.562,47.5],[9.565,47.495],[9.584,47.484],[9.596,47.465],[9.602,47.463],[9.606,47.465],[9.607,47.471],[9.611,47.472],[9.619,47.463],[9.627,47.458],[9.647,47.457],[9.657,47.455],[9.659,47.449],[9.648,47.442],[9.645,47.436],[9.651,47.422],[9.653,47.406],[9.66,47.4],[9.674,47.393],[9.674,47.382],[9.662,47.371],[9.65,47.369],[9.625,47.367],[9.605,47.352],[9.601,47.346],[9.59,47.319],[9.584,47.313],[9.567,47.306],[9.557,47.299],[9.552,47.287],[9.547,47.28],[9.534,47.274],[9.532,47.271],[9.532,47.264],[9.521,47.243],[9.506,47.226],[9.501,47.212],[9.49,47.196],[9.487,47.182],[9.492,47.164],[9.5,47.153],[9.508,47.144],[9.514,47.131],[9.52,47.107],[9.521,47.098],[9.516,47.088],[9.492,47.074],[9.476,47.068],[9.473,47.061],[9.477,47.053],[9.481,47.046],[9.507,47.02],[9.512,47.011],[9.52,47.002],[9.547,46.978],[9.543,46.976],[9.524,46.974],[9.518,46.97],[9.52,46.957],[9.507,46.955],[9.501,46.951],[9.498,46.942],[9.488,46.937],[9.487,46.931],[9.478,46.922],[9.48,46.917],[9.489,46.914],[9.477,46.908],[9.468,46.901],[9.471,46.893],[9.468,46.887],[9.455,46.887],[9.457,46.881],[9.45,46.874],[9.439,46.881],[9.434,46.886],[9.415,46.892],[9.395,46.895],[9.382,46.899],[9.367,46.898],[9.348,46.901],[9.344,46.9],[9.34,46.903],[9.323,46.902],[9.311,46.907],[9.294,46.908],[9.288,46.906],[9.275,46.908],[9.268,46.904],[9.258,46.91],[9.25,46.917]],[[9.619,47.439],[9.63,47.441],[9.63,47.446],[9.622,47.449],[9.614,47.45],[9.599,47.457],[9.597,47.46],[9.581,47.464],[9.563,47.464],[9.559,47.466],[9.547,47.464],[9.548,47.469],[9.544,47.47],[9.533,47.469],[9.527,47.463],[9.529,47.455],[9.525,47.453],[9.51,47.451],[9.504,47.447],[9.484,47.441],[9.469,47.44],[9.465,47.437],[9.451,47.432],[9.445,47.435],[9.437,47.436],[9.434,47.432],[9.436,47.426],[9.431,47.411],[9.428,47.409],[9.4,47.402],[9.393,47.403],[9.391,47.405],[9.379,47.409],[9.337,47.401],[9.331,47.403],[9.321,47.399],[9.305,47.396],[9.272,47.402],[9.259,47.4],[9.257,47.402],[9.246,47.401],[9.238,47.398],[9.233,47.399],[9.233,47.39],[9.224,47.389],[9.22,47.386],[9.223,47.379],[9.222,47.374],[9.214,47.37],[9.214,47.366],[9.2,47.363],[9.193,47.364],[9.198,47.356],[9.206,47.359],[9.2,47.348],[9.212,47.342],[9.227,47.343],[9.234,47.332],[9.224,47.327],[9.212,47.323],[9.218,47.309],[9.218,47.301],[9.225,47.295],[9.218,47.285],[9.208,47.28],[9.207,47.278],[9.223,47.271],[9.233,47.267],[9.253,47.267],[9.258,47.264],[9.268,47.27],[9.276,47.27],[9.285,47.267],[9.291,47.262],[9.298,47.259],[9.309,47.261],[9.309,47.257],[9.319,47.249],[9.325,47.248],[9.334,47.251],[9.345,47.251],[9.352,47.246],[9.36,47.246],[9.375,47.24],[9.383,47.235],[9.393,47.238],[9.403,47.239],[9.411,47.246],[9.42,47.249],[9.428,47.248],[9.439,47.252],[9.455,47.262],[9.474,47.272],[9.482,47.283],[9.486,47.285],[9.492,47.302],[9.498,47.307],[9.494,47.316],[9.5,47.32],[9.503,47.331],[9.504,47.349],[9.5,47.365],[9.5,47.371],[9.504,47.376],[9.507,47.391],[9.51,47.396],[9.538,47.401],[9.547,47.4],[9.549,47.394],[9.556,47.398],[9.556,47.398],[9.577,47.405],[9.584,47.411],[9.598,47.413],[9.606,47.416],[9.59,47.422],[9.59,47.427],[9.608,47.433],[9.619,47.439]],[[9.449,47.495],[9.454,47.491],[9.467,47.489],[9.466,47.486],[9.478,47.491],[9.468,47.497],[9.451,47.502],[9.449,47.495]]]]}}
